CCSDS_OMM_VERS = 2.0
CREATION_DATE  = 
ORIGINATOR     = 

OBJECT_NAME    = HULIANWANG DIGUI 14J
OBJECT_ID      = 2025-285J
CENTER_NAME    = EARTH
REF_FRAME      = TEME
TIME_SYSTEM    = UTC
MEAN_ELEMENT_THEORY = SGP/SGP4

EPOCH          = 2025-12-10T05:04:39.849312
MEAN_MOTION    = 14.06054815
ECCENTRICITY   = .00053865
INCLINATION    = 50.0075
RA_OF_ASC_NODE = 127.5783
ARG_OF_PERICENTER = 287.7981
MEAN_ANOMALY   = 72.2337

EPHEMERIS_TYPE = 0
CLASSIFICATION_TYPE = U
NORAD_CAT_ID   = 66923
ELEMENT_SET_NO = 999
REV_AT_EPOCH   = 55
BSTAR          = .19274669E-3
MEAN_MOTION_DOT = .166E-5
MEAN_MOTION_DDOT = 0

CCSDS_OMM_VERS = 2.0
CREATION_DATE  = 
ORIGINATOR     = 

OBJECT_NAME    = CZ-8A R/B
OBJECT_ID      = 2025-285K
CENTER_NAME    = EARTH
REF_FRAME      = TEME
TIME_SYSTEM    = UTC
MEAN_ELEMENT_THEORY = SGP/SGP4

EPOCH          = 2025-12-10T03:30:48.314592
MEAN_MOTION    = 14.30500165
ECCENTRICITY   = .01193143
INCLINATION    = 50.0060
RA_OF_ASC_NODE = 127.1939
ARG_OF_PERICENTER = 97.5969
MEAN_ANOMALY   = 263.8518

EPHEMERIS_TYPE = 0
CLASSIFICATION_TYPE = U
NORAD_CAT_ID   = 66924
ELEMENT_SET_NO = 999
REV_AT_EPOCH   = 55
BSTAR          = .91738903E-4
MEAN_MOTION_DOT = .93E-6
MEAN_MOTION_DDOT = 0

CCSDS_OMM_VERS = 2.0
CREATION_DATE  = 
ORIGINATOR     = 

OBJECT_NAME    = HULIANWANG DIGUI 15A
OBJECT_ID      = 2025-287A
CENTER_NAME    = EARTH
REF_FRAME      = TEME
TIME_SYSTEM    = UTC
MEAN_ELEMENT_THEORY = SGP/SGP4

EPOCH          = 2025-12-10T06:55:20.076384
MEAN_MOTION    = 13.69073793
ECCENTRICITY   = .00082441
INCLINATION    = 86.4956
RA_OF_ASC_NODE = 347.0512
ARG_OF_PERICENTER = 213.3003
MEAN_ANOMALY   = 146.7638

EPHEMERIS_TYPE = 0
CLASSIFICATION_TYPE = U
NORAD_CAT_ID   = 66953
ELEMENT_SET_NO = 999
REV_AT_EPOCH   = 19
BSTAR          = .9649594E-5
MEAN_MOTION_DOT = .25E-6
MEAN_MOTION_DDOT = 0

CCSDS_OMM_VERS = 2.0
CREATION_DATE  = 
ORIGINATOR     = 

OBJECT_NAME    = HULIANWANG DIGUI 15B
OBJECT_ID      = 2025-287B
CENTER_NAME    = EARTH
REF_FRAME      = TEME
TIME_SYSTEM    = UTC
MEAN_ELEMENT_THEORY = SGP/SGP4

EPOCH          = 2025-12-10T06:55:12.116352
MEAN_MOTION    = 13.69168896
ECCENTRICITY   = .00081807
INCLINATION    = 86.4972
RA_OF_ASC_NODE = 347.0530
ARG_OF_PERICENTER = 212.4744
MEAN_ANOMALY   = 147.5913

EPHEMERIS_TYPE = 0
CLASSIFICATION_TYPE = U
NORAD_CAT_ID   = 66954
ELEMENT_SET_NO = 999
REV_AT_EPOCH   = 19
BSTAR          = .9675889E-5
MEAN_MOTION_DOT = .25E-6
MEAN_MOTION_DDOT = 0

CCSDS_OMM_VERS = 2.0
CREATION_DATE  = 
ORIGINATOR     = 

OBJECT_NAME    = HULIANWANG DIGUI 15C
OBJECT_ID      = 2025-287C
CENTER_NAME    = EARTH
REF_FRAME      = TEME
TIME_SYSTEM    = UTC
MEAN_ELEMENT_THEORY = SGP/SGP4

EPOCH          = 2025-12-09T09:52:18.926688
MEAN_MOTION    = 13.69296672
ECCENTRICITY   = .00076324
INCLINATION    = 86.4914
RA_OF_ASC_NODE = 347.3632
ARG_OF_PERICENTER = 209.8722
MEAN_ANOMALY   = 150.2003

EPHEMERIS_TYPE = 0
CLASSIFICATION_TYPE = U
NORAD_CAT_ID   = 66955
ELEMENT_SET_NO = 999
REV_AT_EPOCH   = 7
BSTAR          = .3470494E-5
MEAN_MOTION_DOT = .2E-6
MEAN_MOTION_DDOT = 0

CCSDS_OMM_VERS = 2.0
CREATION_DATE  = 
ORIGINATOR     = 

OBJECT_NAME    = HULIANWANG DIGUI 15D
OBJECT_ID      = 2025-287D
CENTER_NAME    = EARTH
REF_FRAME      = TEME
TIME_SYSTEM    = UTC
MEAN_ELEMENT_THEORY = SGP/SGP4

EPOCH          = 2025-12-10T06:54:53.091072
MEAN_MOTION    = 13.69398776
ECCENTRICITY   = .00070637
INCLINATION    = 86.4971
RA_OF_ASC_NODE = 347.0530
ARG_OF_PERICENTER = 199.9716
MEAN_ANOMALY   = 160.1168

EPHEMERIS_TYPE = 0
CLASSIFICATION_TYPE = U
NORAD_CAT_ID   = 66956
ELEMENT_SET_NO = 999
REV_AT_EPOCH   = 19
BSTAR          = .9668117E-5
MEAN_MOTION_DOT = .25E-6
MEAN_MOTION_DDOT = 0

CCSDS_OMM_VERS = 2.0
CREATION_DATE  = 
ORIGINATOR     = 

OBJECT_NAME    = HULIANWANG DIGUI 15E
OBJECT_ID      = 2025-287E
CENTER_NAME    = EARTH
REF_FRAME      = TEME
TIME_SYSTEM    = UTC
MEAN_ELEMENT_THEORY = SGP/SGP4

EPOCH          = 2025-12-10T06:54:44.091648
MEAN_MOTION    = 13.69509093
ECCENTRICITY   = .00068937
INCLINATION    = 86.4941
RA_OF_ASC_NODE = 347.0505
ARG_OF_PERICENTER = 197.7318
MEAN_ANOMALY   = 162.3602

EPHEMERIS_TYPE = 0
CLASSIFICATION_TYPE = U
NORAD_CAT_ID   = 66957
ELEMENT_SET_NO = 999
REV_AT_EPOCH   = 19
BSTAR          = -.19855955E-3
MEAN_MOTION_DOT = -.156E-5
MEAN_MOTION_DDOT = 0

CCSDS_OMM_VERS = 2.0
CREATION_DATE  = 
ORIGINATOR     = 

OBJECT_NAME    = CZ-6A R/B
OBJECT_ID      = 2025-287F
CENTER_NAME    = EARTH
REF_FRAME      = TEME
TIME_SYSTEM    = UTC
MEAN_ELEMENT_THEORY = SGP/SGP4

EPOCH          = 2025-12-10T06:20:13.635744
MEAN_MOTION    = 13.94918883
ECCENTRICITY   = .01071678
INCLINATION    = 86.5058
RA_OF_ASC_NODE = 347.0420
ARG_OF_PERICENTER = 109.5710
MEAN_ANOMALY   = 251.7073

EPHEMERIS_TYPE = 0
CLASSIFICATION_TYPE = U
NORAD_CAT_ID   = 66958
ELEMENT_SET_NO = 999
REV_AT_EPOCH   = 19
BSTAR          = .83680097E-3
MEAN_MOTION_DOT = .1198E-4
MEAN_MOTION_DDOT = 0

CCSDS_OMM_VERS = 2.0
CREATION_DATE  = 
ORIGINATOR     = 

OBJECT_NAME    = YAOGAN-47
OBJECT_ID      = 2025-289A
CENTER_NAME    = EARTH
REF_FRAME      = TEME
TIME_SYSTEM    = UTC
MEAN_ELEMENT_THEORY = SGP/SGP4

EPOCH          = 2025-12-09T22:00:55.912320
MEAN_MOTION    = 15.30229903
ECCENTRICITY   = .0009314
INCLINATION    = 97.5260
RA_OF_ASC_NODE = 49.0270
ARG_OF_PERICENTER = 269.0929
MEAN_ANOMALY   = 90.9244

EPHEMERIS_TYPE = 0
CLASSIFICATION_TYPE = U
NORAD_CAT_ID   = 66988
ELEMENT_SET_NO = 999
REV_AT_EPOCH   = 11
BSTAR          = .26830768E-3
MEAN_MOTION_DOT = .7778E-4
MEAN_MOTION_DDOT = 0

CCSDS_OMM_VERS = 2.0
CREATION_DATE  = 
ORIGINATOR     = 

OBJECT_NAME    = CZ-4B R/B
OBJECT_ID      = 2025-289B
CENTER_NAME    = EARTH
REF_FRAME      = TEME
TIME_SYSTEM    = UTC
MEAN_ELEMENT_THEORY = SGP/SGP4

EPOCH          = 2025-12-09T21:36:26.230176
MEAN_MOTION    = 15.66138267
ECCENTRICITY   = .01527269
INCLINATION    = 97.5273
RA_OF_ASC_NODE = 49.0436
ARG_OF_PERICENTER = 13.5900
MEAN_ANOMALY   = 346.9400

EPHEMERIS_TYPE = 0
CLASSIFICATION_TYPE = U
NORAD_CAT_ID   = 66989
ELEMENT_SET_NO = 999
REV_AT_EPOCH   = 12
BSTAR          = .24889825E-3
MEAN_MOTION_DOT = .48017E-3
MEAN_MOTION_DDOT = .2837044E-5

CCSDS_OMM_VERS = 2.0
CREATION_DATE  = 
ORIGINATOR     = 

OBJECT_NAME    = TJS-22
OBJECT_ID      = 2025-290A
CENTER_NAME    = EARTH
REF_FRAME      = TEME
TIME_SYSTEM    = UTC
MEAN_ELEMENT_THEORY = SGP/SGP4

EPOCH          = 2025-12-09T10:19:42.645216
MEAN_MOTION    = 2.28111800
ECCENTRICITY   = .7302159
INCLINATION    = 28.4275
RA_OF_ASC_NODE = 302.9660
ARG_OF_PERICENTER = 179.5139
MEAN_ANOMALY   = 182.3589

EPHEMERIS_TYPE = 0
CLASSIFICATION_TYPE = U
NORAD_CAT_ID   = 66990
ELEMENT_SET_NO = 999
REV_AT_EPOCH   = 19
BSTAR          = .40278E-3
MEAN_MOTION_DOT = .4338E-4
MEAN_MOTION_DDOT = .734076E-6

CCSDS_OMM_VERS = 2.0
CREATION_DATE  = 
ORIGINATOR     = 

OBJECT_NAME    = CZ-3B R/B
OBJECT_ID      = 2025-290B
CENTER_NAME    = EARTH
REF_FRAME      = TEME
TIME_SYSTEM    = UTC
MEAN_ELEMENT_THEORY = SGP/SGP4

EPOCH          = 2025-12-09T10:36:26.069760
MEAN_MOTION    = 2.37490877
ECCENTRICITY   = .72382113
INCLINATION    = 28.4418
RA_OF_ASC_NODE = 302.9445
ARG_OF_PERICENTER = 178.8623
MEAN_ANOMALY   = 185.1180

EPHEMERIS_TYPE = 0
CLASSIFICATION_TYPE = U
NORAD_CAT_ID   = 66991
ELEMENT_SET_NO = 999
REV_AT_EPOCH   = 1
BSTAR          = .40065438E-3
MEAN_MOTION_DOT = .10315E-3
MEAN_MOTION_DDOT = .698243E-6

