HULIANWANG DIGUI 14J    
1 66923U 25285J   25344.21157233  .00000166  00000+0  19275-3 0  9999
2 66923  50.0075 127.5783 0005386 287.7981  72.2337 14.06054815   550
CZ-8A R/B               
1 66924U 25285K   25344.14639253  .00000093  00000+0  91739-4 0  9994
2 66924  50.0060 127.1939 0119314  97.5969 263.8518 14.30500165   554
HULIANWANG DIGUI 15A    
1 66953U 25287A   25344.28842681  .00000025  00000+0  96496-5 0  9995
2 66953  86.4956 347.0512 0008244 213.3003 146.7638 13.69073793   194
HULIANWANG DIGUI 15B    
1 66954U 25287B   25344.28833468  .00000025  00000+0  96759-5 0  9991
2 66954  86.4972 347.0530 0008180 212.4744 147.5913 13.69168896   198
HULIANWANG DIGUI 15C    
1 66955U 25287C   25343.41133017  .00000020  00000+0  34705-5 0  9997
2 66955  86.4914 347.3632 0007632 209.8722 150.2003 13.69296672    70
HULIANWANG DIGUI 15D    
1 66956U 25287D   25344.28811448  .00000025  00000+0  96681-5 0  9991
2 66956  86.4971 347.0530 0007063 199.9716 160.1168 13.69398776   191
HULIANWANG DIGUI 15E    
1 66957U 25287E   25344.28801032 -.00000156  00000+0 -19856-3 0  9994
2 66957  86.4941 347.0505 0006893 197.7318 162.3602 13.69509093   198
CZ-6A R/B               
1 66958U 25287F   25344.26404671  .00001198  00000+0  83680-3 0  9992
2 66958  86.5058 347.0420 0107167 109.5710 251.7073 13.94918883   192
YAOGAN-47               
1 66988U 25289A   25343.91731380  .00007778  00000+0  26831-3 0  9993
2 66988  97.5260  49.0270 0009314 269.0929  90.9244 15.30229903   118
CZ-4B R/B               
1 66989U 25289B   25343.90030359  .00048017  28370-5  24890-3 0  9991
2 66989  97.5273  49.0436 0152726  13.5900 346.9400 15.66138267   124
TJS-22                  
1 66990U 25290A   25343.43035469  .00004338  73408-6  40278-3 0  9999
2 66990  28.4275 302.9660 7302159 179.5139 182.3589  2.28111800   197
CZ-3B R/B               
1 66991U 25290B   25343.44196840  .00010315  69824-6  40065-3 0  9995
2 66991  28.4418 302.9445 7238211 178.8623 185.1180  2.37490877    18
